[{"OBJECT_NAME":"JILIN-1 GAOFEN 3A","OBJECT_ID":"2019-032C","EPOCH":"2026-03-09T17:53:24.364896","MEAN_MOTION":15.3027131,"ECCENTRICITY":0.00026181,"INCLINATION":44.9746,"RA_OF_ASC_NODE":183.2861,"ARG_OF_PERICENTER":111.29,"MEAN_ANOMALY":248.8263,"EPHEMERIS_TYPE":0,"CLASSIFICATION_TYPE":"U","NORAD_CAT_ID":44312,"ELEMENT_SET_NO":999,"REV_AT_EPOCH":37259,"BSTAR":0.00055381133,"MEAN_MOTION_DOT":0.00016264,"MEAN_MOTION_DDOT":0},{"OBJECT_NAME":"STARLINK-35534","OBJECT_ID":"2025-243AB","EPOCH":"2026-03-09T18:01:52.919616","MEAN_MOTION":15.30197677,"ECCENTRICITY":8.266e-5,"INCLINATION":53.1599,"RA_OF_ASC_NODE":244.9327,"ARG_OF_PERICENTER":53.007,"MEAN_ANOMALY":307.1007,"EPHEMERIS_TYPE":0,"CLASSIFICATION_TYPE":"U","NORAD_CAT_ID":66202,"ELEMENT_SET_NO":999,"REV_AT_EPOCH":2066,"BSTAR":0.00092720001,"MEAN_MOTION_DOT":0.000272,"MEAN_MOTION_DDOT":0}]
