JILIN-1 GAOFEN 3A       
1 44312U 19032C   26068.74542089  .00016264  00000+0  55381-3 0  9993
2 44312  44.9746 183.2861 0002618 111.2900 248.8263 15.30271310372592
STARLINK-35534          
1 66202U 25243AB  26068.75130693  .00027200  00000+0  92720-3 0  9991
2 66202  53.1599 244.9327 0000827  53.0070 307.1007 15.30197676 20660
